0 IRIDIUM 33 DEB
1 34155U 97051EJ  13281.12555840  .00006945  00000-0  23342-2 0  3438
2 34155 086.4841 154.1542 0046697 008.9180 143.1961 14.36433040242361
0 IRIDIUM 33 DEB
1 34155U 97051EJ  13282.42947087  .00012463  00000-0  41882-2 0  3442
2 34155 086.4844 153.6207 0046542 004.9613 045.6635 14.36466495242557
0 IRIDIUM 33 DEB
1 34155U 97051EJ  13283.40517090  .00011489  00000-0  38600-2 0  3450
2 34155 086.4849 153.2215 0046433 002.1011 050.9658 14.36481426242698
0 IRIDIUM 33 DEB
1 34155U 97051EJ  13283.60392455  .00012901  00000-0  43491-2 0  3463
2 34155 086.4831 153.1395 0046628 002.2383 357.9496 14.36467566242729
0 IRIDIUM 33 DEB
1 34155U 97051EJ  13286.07312970  .00008661  00000-0  29077-2 0  3474
2 34155 086.4856 152.1294 0046080 354.0606 167.3587 14.36522697243071
0 IRIDIUM 33 DEB
1 34155U 97051EJ  13287.11032193  .00008438  00000-0  28321-2 0  3480
2 34155 086.4856 151.7050 0045934 350.9194 130.9519 14.36537637243228
0 IRIDIUM 33 DEB
1 34155U 97051EJ  13288.15641328  .00015353  00000-0  51508-2 0  3499
2 34155 086.4856 151.2769 0045754 347.7685 140.6159 14.36564190243377
0 IRIDIUM 33 DEB
1 34155U 97051EJ  13289.39573622  .00012665  00000-0  42479-2 0  3509
2 34155 086.4851 150.7697 0045528 343.9300 069.7863 14.36590110243551
0 IRIDIUM 33 DEB
1 34155U 97051EJ  13290.58188756  .00012528  00000-0  42003-2 0  3514
2 34155 086.4848 150.2844 0045345 340.2643 084.0618 14.36613980243721
0 IRIDIUM 33 DEB
1 34155U 97051EJ  13291.77813642  .00010896  00000-0  36519-2 0  3527
2 34155 086.4846 149.7946 0045150 336.5054 150.7300 14.36636249243893
0 IRIDIUM 33 DEB
1 34155U 97051EJ  13292.82192652  .00010773  00000-0  36096-2 0  3530
2 34155 086.4846 149.3675 0044960 333.2822 148.9428 14.36655401244042
0 IRIDIUM 33 DEB
1 34155U 97051EJ  13294.08158517  .00011482  00000-0  38461-2 0  3549
2 34155 086.4847 148.8518 0044742 329.3110 183.7473 14.36677198244221
0 IRIDIUM 33 DEB
1 34155U 97051EJ  13295.12169101  .00012506  00000-0  41879-2 0  3552
2 34155 086.4848 148.4260 0044550 326.0306 163.1317 14.36695729244375
